[
    {
        "CCSDS_OMM_VERS": "3.0",
        "COMMENT": "GENERATED VIA SPACE-TRACK.ORG API",
        "CREATION_DATE": "2025-05-02T00:56:19",
        "ORIGINATOR": "18 SPCS",
        "OBJECT_NAME": "BEIDOU 3M25",
        "OBJECT_ID": "2024-168B",
        "CENTER_NAME": "EARTH",
        "REF_FRAME": "TEME",
        "TIME_SYSTEM": "UTC",
        "MEAN_ELEMENT_THEORY": "SGP4",
        "EPOCH": "2025-05-01T21:04:03.058752",
        "MEAN_MOTION": "1.86229948",
        "ECCENTRICITY": "0.00034980",
        "INCLINATION": "54.8334",
        "RA_OF_ASC_NODE": "316.4956",
        "ARG_OF_PERICENTER": "306.3894",
        "MEAN_ANOMALY": "230.5416",
        "EPHEMERIS_TYPE": "0",
        "CLASSIFICATION_TYPE": "U",
        "NORAD_CAT_ID": "61186",
        "ELEMENT_SET_NO": "999",
        "REV_AT_EPOCH": "412",
        "BSTAR": "0.00000000000000",
        "MEAN_MOTION_DOT": "-0.00000069",
        "MEAN_MOTION_DDOT": "0.0000000000000",
        "SEMIMAJOR_AXIS": "27906.294",
        "PERIOD": "773.238",
        "APOAPSIS": "21537.920",
        "PERIAPSIS": "21518.397",
        "OBJECT_TYPE": "PAYLOAD",
        "RCS_SIZE": null,
        "COUNTRY_CODE": "PRC",
        "LAUNCH_DATE": "2024-09-19",
        "SITE": "XSC",
        "DECAY_DATE": null,
        "FILE": "4715994",
        "GP_ID": "286580203",
        "TLE_LINE0": "0 BEIDOU 3M25",
        "TLE_LINE1": "1 61186U 24168B   25121.87781318 -.00000069  00000-0  00000+0 0  9992",
        "TLE_LINE2": "2 61186  54.8334 316.4956 0003498 306.3894 230.5416  1.86229948  4129"
    }
]